STARLINK-37356          
1 68704U 26081F   26113.71440248 -.00782484  00000+0 -38683-2 0  9999
2 68704  53.1601 195.2537 0000527 245.6876 114.4093 15.83288672  1493
