{
  "norad_id": 68704,
  "name": "STARLINK-37356",
  "history": [
    {
      "epoch": "2026-04-23T17:08:44.374272Z",
      "apogee_km": 321.50081218658397,
      "perigee_km": 320.79470757289346,
      "latitude_deg": 2.1205630811317374e-05,
      "longitude_deg": 86.31115409759133,
      "height_km": 322.21398304557,
      "semi_major_axis_km": 6699.284759879739,
      "eccentricity": 5.27e-05,
      "inclination_deg": 53.1601,
      "raan_deg": 195.2537,
      "arg_perigee_deg": 245.6876,
      "mean_anomaly_deg": 114.4093,
      "mean_motion_rev_day": 15.83288672
    }
  ]
}